[{"OBJECT_NAME":"PROBA-2","OBJECT_ID":"2009-059B","EPOCH":"2026-03-09T22:14:08.403360","MEAN_MOTION":14.54791624,"ECCENTRICITY":0.00123546,"INCLINATION":98.2432,"RA_OF_ASC_NODE":253.6562,"ARG_OF_PERICENTER":223.465,"MEAN_ANOMALY":136.5574,"EPHEMERIS_TYPE":0,"CLASSIFICATION_TYPE":"U","NORAD_CAT_ID":36037,"ELEMENT_SET_NO":999,"REV_AT_EPOCH":86709,"BSTAR":9.6228268e-5,"MEAN_MOTION_DOT":3.67e-6,"MEAN_MOTION_DDOT":0},{"OBJECT_NAME":"METEOR 2-7 DEB","OBJECT_ID":"1981-043E","EPOCH":"2026-03-09T07:30:40.973472","MEAN_MOTION":14.557315,"ECCENTRICITY":0.00184602,"INCLINATION":81.2671,"RA_OF_ASC_NODE":35.1646,"ARG_OF_PERICENTER":344.0796,"MEAN_ANOMALY":15.9817,"EPHEMERIS_TYPE":0,"CLASSIFICATION_TYPE":"U","NORAD_CAT_ID":28388,"ELEMENT_SET_NO":999,"REV_AT_EPOCH":63355,"BSTAR":0.0036873867,"MEAN_MOTION_DOT":0.00016204,"MEAN_MOTION_DDOT":0}]
